STARLINK-36575
1 67569U 26016J   26090.83335647 -.01957522  00000+0 -32778-1 0  9994
2 67569  97.2839 152.4062 0001634  82.2571  94.7623 15.55378216  5988
